{
    "links": {
        "self": "http://www.neowsapp.com/rest/v1/neo/3759753?api_key=iIulBulltgU6a56xZRHN4H3l9WmuAYTsLGpBGhQ2"
    },
    "id": "3759753",
    "neo_reference_id": "3759753",
    "name": "(2016 SS2)",
    "designation": "2016 SS2",
    "nasa_jpl_url": "http://ssd.jpl.nasa.gov/sbdb.cgi?sstr=3759753",
    "absolute_magnitude_h": 25.2,
    "estimated_diameter": {
        "kilometers": {
            "estimated_diameter_min": 0.0242412481,
            "estimated_diameter_max": 0.0542050786
        },
        "meters": {
            "estimated_diameter_min": 24.2412481101,
            "estimated_diameter_max": 54.2050786336
        },
        "miles": {
            "estimated_diameter_min": 0.0150628086,
            "estimated_diameter_max": 0.0336814639
        },
        "feet": {
            "estimated_diameter_min": 79.5316564495,
            "estimated_diameter_max": 177.8381901842
        }
    },
    "is_potentially_hazardous_asteroid": false,
    "close_approach_data": [
        {
            "close_approach_date": "2016-09-16",
            "close_approach_date_full": "2016-Sep-16 04:20",
            "epoch_date_close_approach": 1473999600000,
            "relative_velocity": {
                "kilometers_per_second": "8.1922350844",
                "kilometers_per_hour": "29492.0463040052",
                "miles_per_hour": "18325.210660397"
            },
            "miss_distance": {
                "astronomical": "0.0321723939",
                "lunar": "12.5150612271",
                "kilometers": "4812921.600240993",
                "miles": "2990610.8059239834"
            },
            "orbiting_body": "Earth"
        }
    ],
    "orbital_data": {
        "orbit_id": "5",
        "orbit_determination_date": "2017-04-06 08:23:37",
        "first_observation_date": "2016-09-25",
        "last_observation_date": "2016-10-09",
        "data_arc_in_days": 14,
        "observations_used": 32,
        "orbit_uncertainty": "8",
        "minimum_orbit_intersection": ".0315585",
        "jupiter_tisserand_invariant": "3.381",
        "epoch_osculation": "2457659.5",
        "eccentricity": ".5508882661955752",
        "semi_major_axis": "2.280574107647331",
        "inclination": "5.752519663734247",
        "ascending_node_longitude": "183.0176619844065",
        "orbital_period": "1257.953856254317",
        "perihelion_distance": "1.024232591554972",
        "perihelion_argument": "158.3422094218957",
        "aphelion_distance": "3.536915623739691",
        "perihelion_time": "2457637.606254955089",
        "mean_anomaly": "6.265530469962271",
        "mean_motion": ".2861790185785796",
        "equinox": "J2000",
        "orbit_class": {
            "orbit_class_type": "AMO",
            "orbit_class_description": "Near-Earth asteroid orbits similar to that of 1221 Amor",
            "orbit_class_range": "1.017 AU < q (perihelion) < 1.3 AU"
        }
    },
    "is_sentry_object": false
}